{"fetched_at":"2026-07-18T06:28:05.776Z","source":"https://celestrak.org/NORAD/elements/gp.php?NAME=GHGSAT&FORMAT=JSON","constellation":"ghgsat","records":[{"OBJECT_NAME":"GHGSAT-C1","OBJECT_ID":"2020-061G","EPOCH":"2026-07-17T23:05:47.067648","CLASSIFICATION_TYPE":"U","MEAN_MOTION":15.73596824,"ECCENTRICITY":0.0001278,"INCLINATION":97.2089,"RA_OF_ASC_NODE":285.1477,"ARG_OF_PERICENTER":172.2838,"MEAN_ANOMALY":187.8447,"EPHEMERIS_TYPE":0,"NORAD_CAT_ID":46278,"ELEMENT_SET_NO":999,"REV_AT_EPOCH":32831,"BSTAR":0.00020848576,"MEAN_MOTION_DOT":0.00029013,"MEAN_MOTION_DDOT":0},{"OBJECT_NAME":"GHGSAT-C2","OBJECT_ID":"2021-006DA","EPOCH":"2026-07-17T14:22:40.180224","CLASSIFICATION_TYPE":"U","MEAN_MOTION":15.3812461,"ECCENTRICITY":0.0006618,"INCLINATION":97.2127,"RA_OF_ASC_NODE":245.346,"ARG_OF_PERICENTER":69.2005,"MEAN_ANOMALY":290.9949,"EPHEMERIS_TYPE":0,"NORAD_CAT_ID":47509,"ELEMENT_SET_NO":999,"REV_AT_EPOCH":30452,"BSTAR":0.000088617,"MEAN_MOTION_DOT":0.00003247,"MEAN_MOTION_DDOT":0},{"OBJECT_NAME":"GHGSAT-C3","OBJECT_ID":"2022-057F","EPOCH":"2026-07-17T22:51:04.860576","CLASSIFICATION_TYPE":"U","MEAN_MOTION":15.34699308,"ECCENTRICITY":0.00060768,"INCLINATION":97.664,"RA_OF_ASC_NODE":345.7752,"ARG_OF_PERICENTER":26.364,"MEAN_ANOMALY":333.7911,"EPHEMERIS_TYPE":0,"NORAD_CAT_ID":52737,"ELEMENT_SET_NO":999,"REV_AT_EPOCH":23025,"BSTAR":0.00010937092,"MEAN_MOTION_DOT":0.00003593,"MEAN_MOTION_DDOT":0},{"OBJECT_NAME":"GHGSAT-C5","OBJECT_ID":"2022-057N","EPOCH":"2026-07-17T22:13:54.361632","CLASSIFICATION_TYPE":"U","MEAN_MOTION":15.34675383,"ECCENTRICITY":0.00067723,"INCLINATION":97.6725,"RA_OF_ASC_NODE":347.3577,"ARG_OF_PERICENTER":23.4713,"MEAN_ANOMALY":336.6837,"EPHEMERIS_TYPE":0,"NORAD_CAT_ID":52744,"ELEMENT_SET_NO":999,"REV_AT_EPOCH":23025,"BSTAR":0.0001082625,"MEAN_MOTION_DOT":0.00003554,"MEAN_MOTION_DDOT":0},{"OBJECT_NAME":"GHGSAT-C4","OBJECT_ID":"2022-057Q","EPOCH":"2026-07-17T21:47:04.059168","CLASSIFICATION_TYPE":"U","MEAN_MOTION":15.3468578,"ECCENTRICITY":0.00058942,"INCLINATION":97.6566,"RA_OF_ASC_NODE":344.5292,"ARG_OF_PERICENTER":9.9176,"MEAN_ANOMALY":350.2181,"EPHEMERIS_TYPE":0,"NORAD_CAT_ID":52746,"ELEMENT_SET_NO":999,"REV_AT_EPOCH":23025,"BSTAR":0.0001082389,"MEAN_MOTION_DOT":0.00003554,"MEAN_MOTION_DDOT":0},{"OBJECT_NAME":"GHGSAT-C8","OBJECT_ID":"2023-054J","EPOCH":"2026-07-17T22:50:49.858944","CLASSIFICATION_TYPE":"U","MEAN_MOTION":15.53825252,"ECCENTRICITY":0.00025447,"INCLINATION":97.2954,"RA_OF_ASC_NODE":108.7145,"ARG_OF_PERICENTER":350.8729,"MEAN_ANOMALY":9.2478,"EPHEMERIS_TYPE":0,"NORAD_CAT_ID":56186,"ELEMENT_SET_NO":999,"REV_AT_EPOCH":18321,"BSTAR":0.00015092051,"MEAN_MOTION_DOT":0.00009596,"MEAN_MOTION_DDOT":0},{"OBJECT_NAME":"GHGSAT-C6","OBJECT_ID":"2023-054AC","EPOCH":"2026-07-17T23:34:59.003904","CLASSIFICATION_TYPE":"U","MEAN_MOTION":15.53800052,"ECCENTRICITY":0.00032559,"INCLINATION":97.3014,"RA_OF_ASC_NODE":109.4513,"ARG_OF_PERICENTER":290.4574,"MEAN_ANOMALY":69.633,"EPHEMERIS_TYPE":0,"NORAD_CAT_ID":56204,"ELEMENT_SET_NO":999,"REV_AT_EPOCH":18323,"BSTAR":0.00014654624,"MEAN_MOTION_DOT":0.00009306,"MEAN_MOTION_DDOT":0},{"OBJECT_NAME":"GHGSAT-C7","OBJECT_ID":"2023-054AH","EPOCH":"2026-07-17T23:41:35.313792","CLASSIFICATION_TYPE":"U","MEAN_MOTION":15.50481547,"ECCENTRICITY":0.00048515,"INCLINATION":97.2965,"RA_OF_ASC_NODE":107.7576,"ARG_OF_PERICENTER":290.1684,"MEAN_ANOMALY":69.9046,"EPHEMERIS_TYPE":0,"NORAD_CAT_ID":56209,"ELEMENT_SET_NO":999,"REV_AT_EPOCH":18316,"BSTAR":0.00011487196,"MEAN_MOTION_DOT":0.00006453,"MEAN_MOTION_DDOT":0},{"OBJECT_NAME":"GHGSAT-C12","OBJECT_ID":"2025-135B","EPOCH":"2026-07-17T20:27:14.111424","CLASSIFICATION_TYPE":"U","MEAN_MOTION":15.20454893,"ECCENTRICITY":0.0006329,"INCLINATION":97.4773,"RA_OF_ASC_NODE":313.3946,"ARG_OF_PERICENTER":74.0018,"MEAN_ANOMALY":286.1914,"EPHEMERIS_TYPE":0,"NORAD_CAT_ID":64529,"ELEMENT_SET_NO":999,"REV_AT_EPOCH":5948,"BSTAR":0.00008247919,"MEAN_MOTION_DOT":0.00001731,"MEAN_MOTION_DDOT":0},{"OBJECT_NAME":"GHGSAT-C13","OBJECT_ID":"2025-135W","EPOCH":"2026-07-17T21:41:51.892512","CLASSIFICATION_TYPE":"U","MEAN_MOTION":15.21419785,"ECCENTRICITY":0.00017501,"INCLINATION":97.4806,"RA_OF_ASC_NODE":314.0663,"ARG_OF_PERICENTER":65.27,"MEAN_ANOMALY":294.8717,"EPHEMERIS_TYPE":0,"NORAD_CAT_ID":64548,"ELEMENT_SET_NO":999,"REV_AT_EPOCH":5952,"BSTAR":0.00013743119,"MEAN_MOTION_DOT":0.00003014,"MEAN_MOTION_DDOT":0}]}
