GHGSAT-C1               
1 46278U 20061G   26198.96235032  .00029013  00000+0  20849-3 0  9992
2 46278  97.2089 285.1477 0001278 172.2838 187.8447 15.73596824328313
GHGSAT-C2               
1 47509U 21006DA  26198.59907616  .00003247  00000+0  88617-4 0  9992
2 47509  97.2127 245.3460 0006618  69.2005 290.9949 15.38124610304529
GHGSAT-C3               
1 52737U 22057F   26198.95213959  .00003593  00000+0  10937-3 0  9991
2 52737  97.6640 345.7752 0006076  26.3640 333.7911 15.34699308230258
GHGSAT-C5               
1 52744U 22057N   26198.92632363  .00003554  00000+0  10826-3 0  9994
2 52744  97.6725 347.3577 0006772  23.4713 336.6837 15.34675383230251
GHGSAT-C4               
1 52746U 22057Q   26198.90768587  .00003554  00000+0  10824-3 0  9990
2 52746  97.6566 344.5292 0005894   9.9176 350.2181 15.34685780230251
GHGSAT-C8               
1 56186U 23054J   26198.95196596  .00009596  00000+0  15092-3 0  9994
2 56186  97.2954 108.7145 0002544 350.8729   9.2478 15.53825252183212
GHGSAT-C6               
1 56204U 23054AC  26198.98262736  .00009306  00000+0  14655-3 0  9991
2 56204  97.3014 109.4513 0003255 290.4574  69.6330 15.53800052183235
GHGSAT-C7               
1 56209U 23054AH  26198.98721428  .00006453  00000+0  11487-3 0  9994
2 56209  97.2965 107.7576 0004851 290.1684  69.9046 15.50481547183166
GHGSAT-C12              
1 64529U 25135B   26198.85224666  .00001731  00000+0  82479-4 0  9992
2 64529  97.4773 313.3946 0006329  74.0018 286.1914 15.20454893 59482
GHGSAT-C13              
1 64548U 25135W   26198.90407283  .00003014  00000+0  13743-3 0  9990
2 64548  97.4806 314.0663 0001750  65.2700 294.8717 15.21419785 59521
